OBJECT_NAME,OBJECT_ID,EPOCH,MEAN_MOTION,ECCENTRICITY,INCLINATION,RA_OF_ASC_NODE,ARG_OF_PERICENTER,MEAN_ANOMALY,EPHEMERIS_TYPE,CLASSIFICATION_TYPE,NORAD_CAT_ID,ELEMENT_SET_NO,REV_AT_EPOCH,BSTAR,MEAN_MOTION_DOT,MEAN_MOTION_DDOT
ONEWEB-0158,2021-025N,2026-06-26T15:36:43.334784,13.13472055,.00016464,87.8970,318.3337,101.2513,258.8801,0,U,48054,999,25487,-.6604083E-3,-.228E-5,0
ONEWEB-0157,2021-025P,2026-06-26T08:54:32.238144,13.13470929,.00022031,87.8968,318.3946,103.0655,257.0721,0,U,48055,999,25477,.72521553E-3,.278E-5,0
ONEWEB-0162,2021-025Q,2026-06-26T15:38:58.713216,13.13470099,.0001975,87.8967,318.3395,94.2256,265.9099,0,U,48056,999,25478,-.75311957E-3,-.262E-5,0
ONEWEB-0155,2021-025R,2026-06-26T10:19:50.977632,13.13462738,.0001155,87.9002,318.3789,83.1752,276.9508,0,U,48057,999,25489,-.58085684E-2,-.2108E-4,0
ONEWEB-0149,2021-025S,2026-06-26T10:51:32.252832,13.13471631,.00019971,87.8967,318.3790,92.7193,267.4164,0,U,48058,999,25470,.1016113E-2,.384E-5,0
ONEWEB-0148,2021-025T,2026-06-26T15:26:58.754112,13.13471002,.0002357,87.8962,318.3471,88.3635,271.7765,0,U,48059,999,25485,-.55381311E-3,-.189E-5,0
ONEWEB-0160,2021-025U,2026-06-26T10:22:15.394368,13.13471066,.00011432,87.8962,318.3853,87.2753,272.8507,0,U,48060,999,25477,-.13321684E-3,-.36E-6,0
ONEWEB-0163,2021-025V,2026-06-26T10:00:19.070496,13.13469103,.0002165,87.8969,318.3836,102.3343,257.8028,0,U,48061,999,25489,-.71625838E-3,-.249E-5,0
ONEWEB-0159,2021-025W,2026-06-26T09:48:08.161056,13.13468634,.00020325,87.8973,318.3787,103.4556,256.6800,0,U,48062,999,25481,-.62030485E-3,-.214E-5,0
ONEWEB-0164,2021-025X,2026-06-26T14:50:25.002816,13.13470568,.00017917,87.8973,318.3436,98.6199,261.5133,0,U,48063,999,25482,.10010198E-2,.378E-5,0
ONEWEB-0167,2021-025Y,2026-06-26T15:30:38.337984,13.13469229,.00020403,87.8961,318.3471,117.0031,243.1306,0,U,48064,999,25481,-.84173956E-3,-.295E-5,0
ONEWEB-0166,2021-025Z,2026-06-26T10:34:28.378272,13.13472081,.00019317,87.8971,318.3603,97.0972,263.0376,0,U,48065,999,25486,.19628909E-3,.84E-6,0
ONEWEB-0151,2021-025AA,2026-06-26T10:36:53.290944,13.13471891,.00018412,87.8963,318.3760,102.1010,258.0326,0,U,48066,999,25480,.3425155E-3,.138E-5,0
ONEWEB-0170,2021-025AB,2026-06-26T10:49:04.675584,13.13467350,.00013428,87.8967,318.3766,106.2422,253.8855,0,U,48067,999,25476,-.28845139E-2,-.104E-4,0
ONEWEB-0168,2021-025AC,2026-06-26T10:27:07.534368,13.13464370,.0001968,87.8969,318.3796,99.7553,260.3798,0,U,48068,999,25477,.2654005E-2,.982E-5,0
ONEWEB-0173,2021-025AD,2026-06-26T10:14:57.224544,13.13471397,.00021201,87.8963,318.3825,106.3758,253.7604,0,U,48069,999,25501,-.67642218E-3,-.234E-5,0
ONEWEB-0171,2021-025AE,2026-06-26T14:47:58.664544,13.13471278,.00018189,87.8960,318.3526,100.9948,259.1386,0,U,48070,999,25485,.10633688E-2,.401E-5,0
ONEWEB-0172,2021-025AF,2026-06-26T10:39:20.252160,13.13469822,.00019132,87.8966,318.3775,103.1239,257.0104,0,U,48071,999,25572,.25558776E-3,.106E-5,0
ONEWEB-0174,2021-025AG,2026-06-26T10:12:31.237056,13.13470298,.00019721,87.8965,318.3804,96.8589,263.2764,0,U,48072,999,25504,.20818456E-3,.89E-6,0
ONEWEB-0175,2021-025AH,2026-06-26T10:56:24.153504,13.13471187,.00016754,87.8970,318.3589,107.7525,252.3788,0,U,48073,999,25470,.91412826E-3,.347E-5,0
ONEWEB-0177,2021-025AJ,2026-06-26T14:52:51.302208,13.13469177,.0002114,87.8969,318.3447,98.3228,261.8141,0,U,48074,999,25491,.7826043E-3,.299E-5,0
ONEWEB-0178,2021-025AK,2026-06-26T15:19:52.434048,13.13468650,.00019097,87.8961,318.3523,106.4466,253.6873,0,U,48075,999,25496,-.53809271E-3,-.184E-5,0
ONEWEB-0108,2021-025AL,2026-06-26T10:41:46.474656,13.13470947,.00018364,87.8971,318.3709,91.1446,268.9894,0,U,48076,999,25486,.53600979E-3,.208E-5,0
ONEWEB-0169,2021-025AM,2026-06-26T15:07:28.676928,13.13470520,.00019787,87.8963,318.3413,96.8509,263.2845,0,U,48077,999,25354,.32936353E-3,.133E-5,0
ONEWEB-0176,2021-031A,2026-06-26T12:59:43.377792,13.14504057,.00020207,87.8969,287.8346,104.9824,255.1530,0,U,48210,999,24954,.3807316E-3,.154E-5,0
ONEWEB-0184,2021-031B,2026-06-26T14:10:30.775008,13.14504178,.00019531,87.8974,287.8265,125.0902,235.0411,0,U,48211,999,24952,.36325153E-3,.147E-5,0
ONEWEB-0179,2021-031C,2026-06-26T13:42:37.010880,14.25530511,.02193366,87.8995,284.7139,226.3139,131.9698,0,U,48212,999,25038,.10194463E-3,.328E-5,0
ONEWEB-0180,2021-031D,2026-06-26T14:15:05.943456,13.14506281,.00023096,87.8975,287.8220,107.7884,252.3498,0,U,48213,999,24945,.52987284E-3,.209E-5,0
ONEWEB-0218,2021-031E,2026-06-26T12:57:27.058464,13.14503562,.0002232,87.8982,287.8325,123.8194,236.3149,0,U,48214,999,24960,.45200121E-3,.18E-5,0
ONEWEB-0209,2021-031F,2026-06-26T07:12:37.825056,13.14501993,.00022105,87.8969,287.8960,101.3112,258.8266,0,U,48215,999,24957,.65460134E-3,.255E-5,0
