ONEWEB-0158             
1 48054U 21025N   26177.65050156 -.00000228  00000+0 -66041-3 0  9995
2 48054  87.8970 318.3337 0001646 101.2513 258.8801 13.13472055254879
ONEWEB-0157             
1 48055U 21025P   26177.37120646  .00000278  00000+0  72522-3 0  9991
2 48055  87.8968 318.3946 0002203 103.0655 257.0721 13.13470929254779
ONEWEB-0162             
1 48056U 21025Q   26177.65206844 -.00000262  00000+0 -75312-3 0  9993
2 48056  87.8967 318.3395 0001975  94.2256 265.9099 13.13470099254785
ONEWEB-0155             
1 48057U 21025R   26177.43045113 -.00002108  00000+0 -58086-2 0  9999
2 48057  87.9002 318.3789 0001155  83.1752 276.9508 13.13462738254892
ONEWEB-0149             
1 48058U 21025S   26177.45245663  .00000384  00000+0  10161-2 0  9998
2 48058  87.8967 318.3790 0001997  92.7193 267.4164 13.13471631254708
ONEWEB-0148             
1 48059U 21025T   26177.64373558 -.00000189  00000+0 -55381-3 0  9994
2 48059  87.8962 318.3471 0002357  88.3635 271.7765 13.13471002254856
ONEWEB-0160             
1 48060U 21025U   26177.43212262 -.00000036  00000+0 -13322-3 0  9997
2 48060  87.8962 318.3853 0001143  87.2753 272.8507 13.13471066254770
ONEWEB-0163             
1 48061U 21025V   26177.41688739 -.00000249  00000+0 -71626-3 0  9999
2 48061  87.8969 318.3836 0002165 102.3343 257.8028 13.13469103254891
ONEWEB-0159             
1 48062U 21025W   26177.40842779 -.00000214  00000+0 -62030-3 0  9996
2 48062  87.8973 318.3787 0002032 103.4556 256.6800 13.13468634254818
ONEWEB-0164             
1 48063U 21025X   26177.61834494  .00000378  00000+0  10010-2 0  9994
2 48063  87.8973 318.3436 0001791  98.6199 261.5133 13.13470568254823
ONEWEB-0167             
1 48064U 21025Y   26177.64627706 -.00000295  00000+0 -84174-3 0  9997
2 48064  87.8961 318.3471 0002040 117.0031 243.1306 13.13469229254818
ONEWEB-0166             
1 48065U 21025Z   26177.44060623  .00000084  00000+0  19629-3 0  9992
2 48065  87.8971 318.3603 0001931  97.0972 263.0376 13.13472081254869
ONEWEB-0151             
1 48066U 21025AA  26177.44228346  .00000138  00000+0  34252-3 0  9990
2 48066  87.8963 318.3760 0001841 102.1010 258.0326 13.13471891254807
ONEWEB-0170             
1 48067U 21025AB  26177.45074856 -.00001040  00000+0 -28845-2 0  9992
2 48067  87.8967 318.3766 0001342 106.2422 253.8855 13.13467350254766
ONEWEB-0168             
1 48068U 21025AC  26177.43550387  .00000982  00000+0  26540-2 0  9991
2 48068  87.8969 318.3796 0001968  99.7553 260.3798 13.13464370254776
ONEWEB-0173             
1 48069U 21025AD  26177.42705121 -.00000234  00000+0 -67642-3 0  9990
2 48069  87.8963 318.3825 0002120 106.3758 253.7604 13.13471397255014
ONEWEB-0171             
1 48070U 21025AE  26177.61665121  .00000401  00000+0  10634-2 0  9990
2 48070  87.8960 318.3526 0001818 100.9948 259.1386 13.13471278254851
ONEWEB-0172             
1 48071U 21025AF  26177.44398440  .00000106  00000+0  25559-3 0  9994
2 48071  87.8966 318.3775 0001913 103.1239 257.0104 13.13469822255722
ONEWEB-0174             
1 48072U 21025AG  26177.42536154  .00000089  00000+0  20818-3 0  9992
2 48072  87.8965 318.3804 0001972  96.8589 263.2764 13.13470298255041
ONEWEB-0175             
1 48073U 21025AH  26177.45583511  .00000347  00000+0  91413-3 0  9991
2 48073  87.8970 318.3589 0001675 107.7525 252.3788 13.13471187254705
ONEWEB-0177             
1 48074U 21025AJ  26177.62003822  .00000299  00000+0  78260-3 0  9994
2 48074  87.8969 318.3447 0002114  98.3228 261.8141 13.13469177254918
ONEWEB-0178             
1 48075U 21025AK  26177.63880132 -.00000184  00000+0 -53809-3 0  9990
2 48075  87.8961 318.3523 0001909 106.4466 253.6873 13.13468650254963
ONEWEB-0108             
1 48076U 21025AL  26177.44567679  .00000208  00000+0  53601-3 0  9993
2 48076  87.8971 318.3709 0001836  91.1446 268.9894 13.13470947254861
ONEWEB-0169             
1 48077U 21025AM  26177.63019302  .00000133  00000+0  32936-3 0  9995
2 48077  87.8963 318.3413 0001978  96.8509 263.2845 13.13470520253549
ONEWEB-0176             
1 48210U 21031A   26177.54147428  .00000154  00000+0  38073-3 0  9993
2 48210  87.8969 287.8346 0002020 104.9824 255.1530 13.14504057249549
ONEWEB-0184             
1 48211U 21031B   26177.59063397  .00000147  00000+0  36325-3 0  9991
2 48211  87.8974 287.8265 0001953 125.0902 235.0411 13.14504178249528
ONEWEB-0179             
1 48212U 21031C   26177.57126170  .00000328  00000+0  10194-3 0  9996
2 48212  87.8995 284.7139 0219336 226.3139 131.9698 14.25530511250381
ONEWEB-0180             
1 48213U 21031D   26177.59381879  .00000209  00000+0  52987-3 0  9992
2 48213  87.8975 287.8220 0002309 107.7884 252.3498 13.14506281249450
ONEWEB-0218             
1 48214U 21031E   26177.53989651  .00000180  00000+0  45200-3 0  9997
2 48214  87.8982 287.8325 0002232 123.8194 236.3149 13.14503562249604
ONEWEB-0209             
1 48215U 21031F   26177.30043779  .00000255  00000+0  65460-3 0  9998
2 48215  87.8969 287.8960 0002210 101.3112 258.8266 13.14501993249573
